[{"OBJECT_NAME":"TRANSPORTER-12 OBJECT AZ","OBJECT_ID":"2025-009AZ","EPOCH":"2026-03-09T17:02:46.667040","MEAN_MOTION":15.30349724,"ECCENTRICITY":9.87e-5,"INCLINATION":97.3981,"RA_OF_ASC_NODE":151.9913,"ARG_OF_PERICENTER":45.3581,"MEAN_ANOMALY":314.774,"EPHEMERIS_TYPE":0,"CLASSIFICATION_TYPE":"U","NORAD_CAT_ID":62656,"ELEMENT_SET_NO":999,"REV_AT_EPOCH":6379,"BSTAR":0.00054902545,"MEAN_MOTION_DOT":0.00016057,"MEAN_MOTION_DDOT":0},{"OBJECT_NAME":"STARLINK-34906","OBJECT_ID":"2025-224Q","EPOCH":"2026-03-09T04:01:11.337312","MEAN_MOTION":15.30179574,"ECCENTRICITY":9.809e-5,"INCLINATION":53.1626,"RA_OF_ASC_NODE":13.8184,"ARG_OF_PERICENTER":109.5738,"MEAN_ANOMALY":250.5369,"EPHEMERIS_TYPE":0,"CLASSIFICATION_TYPE":"U","NORAD_CAT_ID":65896,"ELEMENT_SET_NO":999,"REV_AT_EPOCH":2479,"BSTAR":0.00078284323,"MEAN_MOTION_DOT":0.00022883,"MEAN_MOTION_DDOT":0}]
